[{"OBJECT_NAME":"STARLINK-36882","OBJECT_ID":"2026-038V","EPOCH":"2026-03-15T06:00:00.999648","MEAN_MOTION":15.75161639,"ECCENTRICITY":0.00013531,"INCLINATION":97.2851,"RA_OF_ASC_NODE":84.8722,"ARG_OF_PERICENTER":82.8269,"MEAN_ANOMALY":339.718,"EPHEMERIS_TYPE":0,"CLASSIFICATION_TYPE":"U","NORAD_CAT_ID":67980,"ELEMENT_SET_NO":999,"REV_AT_EPOCH":409,"BSTAR":0.00026032771,"MEAN_MOTION_DOT":0.00038829,"MEAN_MOTION_DDOT":0},{"OBJECT_NAME":"STARLINK-36874","OBJECT_ID":"2026-038W","EPOCH":"2026-03-15T06:00:00.999648","MEAN_MOTION":15.75090508,"ECCENTRICITY":0.0001538,"INCLINATION":97.2844,"RA_OF_ASC_NODE":84.8787,"ARG_OF_PERICENTER":106.7941,"MEAN_ANOMALY":329.7751,"EPHEMERIS_TYPE":0,"CLASSIFICATION_TYPE":"U","NORAD_CAT_ID":67981,"ELEMENT_SET_NO":999,"REV_AT_EPOCH":409,"BSTAR":0.00071623232,"MEAN_MOTION_DOT":0.00107593,"MEAN_MOTION_DDOT":0},{"OBJECT_NAME":"STARLINK-36879","OBJECT_ID":"2026-038X","EPOCH":"2026-03-15T06:00:00.999648","MEAN_MOTION":15.69145026,"ECCENTRICITY":0.00013996,"INCLINATION":97.2784,"RA_OF_ASC_NODE":84.8756,"ARG_OF_PERICENTER":77.3664,"MEAN_ANOMALY":354.1195,"EPHEMERIS_TYPE":0,"CLASSIFICATION_TYPE":"U","NORAD_CAT_ID":67982,"ELEMENT_SET_NO":999,"REV_AT_EPOCH":409,"BSTAR":-0.02338447,"MEAN_MOTION_DOT":-0.02331891,"MEAN_MOTION_DDOT":0},{"OBJECT_NAME":"STARLINK-36867","OBJECT_ID":"2026-038Y","EPOCH":"2026-03-15T06:00:00.999648","MEAN_MOTION":15.72290557,"ECCENTRICITY":0.00018065,"INCLINATION":97.2781,"RA_OF_ASC_NODE":84.8854,"ARG_OF_PERICENTER":79.3952,"MEAN_ANOMALY":18.1325,"EPHEMERIS_TYPE":0,"CLASSIFICATION_TYPE":"U","NORAD_CAT_ID":67983,"ELEMENT_SET_NO":999,"REV_AT_EPOCH":409,"BSTAR":-0.020606632,"MEAN_MOTION_DOT":-0.02344552,"MEAN_MOTION_DDOT":0},{"OBJECT_NAME":"STARLINK-36266","OBJECT_ID":"2026-038Z","EPOCH":"2026-03-15T06:00:00.999648","MEAN_MOTION":15.7514923,"ECCENTRICITY":0.00011501,"INCLINATION":97.284,"RA_OF_ASC_NODE":84.8848,"ARG_OF_PERICENTER":85.7224,"MEAN_ANOMALY":6.8246,"EPHEMERIS_TYPE":0,"CLASSIFICATION_TYPE":"U","NORAD_CAT_ID":67984,"ELEMENT_SET_NO":999,"REV_AT_EPOCH":406,"BSTAR":0.00031928943,"MEAN_MOTION_DOT":0.00047676,"MEAN_MOTION_DDOT":0},{"OBJECT_NAME":"STARLINK-36802","OBJECT_ID":"2026-038AA","EPOCH":"2026-03-15T06:00:00.999648","MEAN_MOTION":15.7508779,"ECCENTRICITY":0.00014759,"INCLINATION":97.2778,"RA_OF_ASC_NODE":84.888,"ARG_OF_PERICENTER":89.805,"MEAN_ANOMALY":16.8024,"EPHEMERIS_TYPE":0,"CLASSIFICATION_TYPE":"U","NORAD_CAT_ID":67985,"ELEMENT_SET_NO":999,"REV_AT_EPOCH":409,"BSTAR":0.00045426803,"MEAN_MOTION_DOT":0.00067867,"MEAN_MOTION_DDOT":0},{"OBJECT_NAME":"STARLINK-36535","OBJECT_ID":"2026-039A","EPOCH":"2026-03-15T06:00:00.999648","MEAN_MOTION":15.78824329,"ECCENTRICITY":0.00014746,"INCLINATION":42.9993,"RA_OF_ASC_NODE":20.8749,"ARG_OF_PERICENTER":271.5618,"MEAN_ANOMALY":155.5274,"EPHEMERIS_TYPE":0,"CLASSIFICATION_TYPE":"U","NORAD_CAT_ID":67986,"ELEMENT_SET_NO":999,"REV_AT_EPOCH":377,"BSTAR":-0.011785179,"MEAN_MOTION_DOT":-0.01871526,"MEAN_MOTION_DDOT":0},{"OBJECT_NAME":"STARLINK-36744","OBJECT_ID":"2026-039B","EPOCH":"2026-03-15T04:10:12.870912","MEAN_MOTION":15.81207426,"ECCENTRICITY":0.00036211,"INCLINATION":42.9989,"RA_OF_ASC_NODE":21.3207,"ARG_OF_PERICENTER":326.6915,"MEAN_ANOMALY":33.3728,"EPHEMERIS_TYPE":0,"CLASSIFICATION_TYPE":"U","NORAD_CAT_ID":67987,"ELEMENT_SET_NO":999,"REV_AT_EPOCH":250,"BSTAR":-0.0013496075,"MEAN_MOTION_DOT":-0.00266105,"MEAN_MOTION_DDOT":0},{"OBJECT_NAME":"STARLINK-36734","OBJECT_ID":"2026-039C","EPOCH":"2026-03-15T06:00:00.999648","MEAN_MOTION":15.62493169,"ECCENTRICITY":0.00012752,"INCLINATION":42.9995,"RA_OF_ASC_NODE":21.2502,"ARG_OF_PERICENTER":259.555,"MEAN_ANOMALY":16.4956,"EPHEMERIS_TYPE":0,"CLASSIFICATION_TYPE":"U","NORAD_CAT_ID":67988,"ELEMENT_SET_NO":999,"REV_AT_EPOCH":377,"BSTAR":-0.023480184,"MEAN_MOTION_DOT":-0.01900574,"MEAN_MOTION_DDOT":0},{"OBJECT_NAME":"STARLINK-36957","OBJECT_ID":"2026-039D","EPOCH":"2026-03-14T17:31:29.704224","MEAN_MOTION":15.82079172,"ECCENTRICITY":0.00053353,"INCLINATION":42.9989,"RA_OF_ASC_NODE":24.0143,"ARG_OF_PERICENTER":227.1708,"MEAN_ANOMALY":132.8716,"EPHEMERIS_TYPE":0,"CLASSIFICATION_TYPE":"U","NORAD_CAT_ID":67989,"ELEMENT_SET_NO":999,"REV_AT_EPOCH":243,"BSTAR":0.002081936,"MEAN_MOTION_DOT":0.0046368,"MEAN_MOTION_DDOT":0},{"OBJECT_NAME":"STARLINK-36951","OBJECT_ID":"2026-039E","EPOCH":"2026-03-15T06:00:00.999648","MEAN_MOTION":15.75151802,"ECCENTRICITY":0.00015104,"INCLINATION":42.9996,"RA_OF_ASC_NODE":20.8704,"ARG_OF_PERICENTER":276.4303,"MEAN_ANOMALY":151.877,"EPHEMERIS_TYPE":0,"CLASSIFICATION_TYPE":"U","NORAD_CAT_ID":67990,"ELEMENT_SET_NO":999,"REV_AT_EPOCH":377,"BSTAR":-0.013933951,"MEAN_MOTION_DOT":-0.01874721,"MEAN_MOTION_DDOT":0},{"OBJECT_NAME":"STARLINK-36941","OBJECT_ID":"2026-039F","EPOCH":"2026-03-15T06:00:00.999648","MEAN_MOTION":15.621432,"ECCENTRICITY":0.00013674,"INCLINATION":42.9995,"RA_OF_ASC_NODE":21.2313,"ARG_OF_PERICENTER":257.9514,"MEAN_ANOMALY":25.0393,"EPHEMERIS_TYPE":0,"CLASSIFICATION_TYPE":"U","NORAD_CAT_ID":67991,"ELEMENT_SET_NO":999,"REV_AT_EPOCH":377,"BSTAR":-0.023779822,"MEAN_MOTION_DOT":-0.01898748,"MEAN_MOTION_DDOT":0},{"OBJECT_NAME":"STARLINK-36950","OBJECT_ID":"2026-039G","EPOCH":"2026-03-15T06:00:00.999648","MEAN_MOTION":15.67626156,"ECCENTRICITY":0.00015425,"INCLINATION":42.9998,"RA_OF_ASC_NODE":21.019,"ARG_OF_PERICENTER":272.4749,"MEAN_ANOMALY":95.6545,"EPHEMERIS_TYPE":0,"CLASSIFICATION_TYPE":"U","NORAD_CAT_ID":67992,"ELEMENT_SET_NO":999,"REV_AT_EPOCH":377,"BSTAR":-0.019053145,"MEAN_MOTION_DOT":-0.01897896,"MEAN_MOTION_DDOT":0},{"OBJECT_NAME":"STARLINK-36975","OBJECT_ID":"2026-039H","EPOCH":"2026-03-15T06:00:00.999648","MEAN_MOTION":15.68919818,"ECCENTRICITY":0.00014415,"INCLINATION":42.9998,"RA_OF_ASC_NODE":20.9704,"ARG_OF_PERICENTER":271.1505,"MEAN_ANOMALY":116.5225,"EPHEMERIS_TYPE":0,"CLASSIFICATION_TYPE":"U","NORAD_CAT_ID":67993,"ELEMENT_SET_NO":999,"REV_AT_EPOCH":377,"BSTAR":-0.018057834,"MEAN_MOTION_DOT":-0.01897882,"MEAN_MOTION_DDOT":0},{"OBJECT_NAME":"STARLINK-36993","OBJECT_ID":"2026-039J","EPOCH":"2026-03-15T06:00:00.999648","MEAN_MOTION":15.79322951,"ECCENTRICITY":0.00017581,"INCLINATION":42.9999,"RA_OF_ASC_NODE":20.7841,"ARG_OF_PERICENTER":275.4546,"MEAN_ANOMALY":187.1692,"EPHEMERIS_TYPE":0,"CLASSIFICATION_TYPE":"U","NORAD_CAT_ID":67994,"ELEMENT_SET_NO":999,"REV_AT_EPOCH":377,"BSTAR":-0.011325467,"MEAN_MOTION_DOT":-0.01844491,"MEAN_MOTION_DDOT":0},{"OBJECT_NAME":"STARLINK-36968","OBJECT_ID":"2026-039K","EPOCH":"2026-03-15T06:00:00.999648","MEAN_MOTION":15.65450705,"ECCENTRICITY":0.0001482,"INCLINATION":42.9997,"RA_OF_ASC_NODE":21.0486,"ARG_OF_PERICENTER":268.4709,"MEAN_ANOMALY":87.7352,"EPHEMERIS_TYPE":0,"CLASSIFICATION_TYPE":"U","NORAD_CAT_ID":67995,"ELEMENT_SET_NO":999,"REV_AT_EPOCH":377,"BSTAR":-0.020803258,"MEAN_MOTION_DOT":-0.01896083,"MEAN_MOTION_DDOT":0},{"OBJECT_NAME":"STARLINK-36979","OBJECT_ID":"2026-039L","EPOCH":"2026-03-14T23:28:37.616160","MEAN_MOTION":15.82043667,"ECCENTRICITY":0.00021657,"INCLINATION":42.9991,"RA_OF_ASC_NODE":22.4301,"ARG_OF_PERICENTER":291.0763,"MEAN_ANOMALY":68.9877,"EPHEMERIS_TYPE":0,"CLASSIFICATION_TYPE":"U","NORAD_CAT_ID":67996,"ELEMENT_SET_NO":999,"REV_AT_EPOCH":247,"BSTAR":0.00094174817,"MEAN_MOTION_DOT":0.00202745,"MEAN_MOTION_DDOT":0},{"OBJECT_NAME":"STARLINK-36994","OBJECT_ID":"2026-039M","EPOCH":"2026-03-15T06:00:00.999648","MEAN_MOTION":15.75029971,"ECCENTRICITY":0.00012575,"INCLINATION":42.9997,"RA_OF_ASC_NODE":20.785,"ARG_OF_PERICENTER":272.2816,"MEAN_ANOMALY":189.456,"EPHEMERIS_TYPE":0,"CLASSIFICATION_TYPE":"U","NORAD_CAT_ID":67997,"ELEMENT_SET_NO":999,"REV_AT_EPOCH":377,"BSTAR":-0.014043095,"MEAN_MOTION_DOT":-0.0187842,"MEAN_MOTION_DDOT":0},{"OBJECT_NAME":"STARLINK-36988","OBJECT_ID":"2026-039N","EPOCH":"2026-03-15T06:00:00.999648","MEAN_MOTION":15.76062285,"ECCENTRICITY":0.00014876,"INCLINATION":42.9998,"RA_OF_ASC_NODE":20.7815,"ARG_OF_PERICENTER":278.7442,"MEAN_ANOMALY":184.4807,"EPHEMERIS_TYPE":0,"CLASSIFICATION_TYPE":"U","NORAD_CAT_ID":67998,"ELEMENT_SET_NO":999,"REV_AT_EPOCH":377,"BSTAR":-0.01339684,"MEAN_MOTION_DOT":-0.01876635,"MEAN_MOTION_DDOT":0},{"OBJECT_NAME":"STARLINK-36926","OBJECT_ID":"2026-039P","EPOCH":"2026-03-15T06:00:00.999648","MEAN_MOTION":15.75219117,"ECCENTRICITY":0.0001453,"INCLINATION":42.9998,"RA_OF_ASC_NODE":20.7715,"ARG_OF_PERICENTER":280.1867,"MEAN_ANOMALY":186.9296,"EPHEMERIS_TYPE":0,"CLASSIFICATION_TYPE":"U","NORAD_CAT_ID":67999,"ELEMENT_SET_NO":999,"REV_AT_EPOCH":377,"BSTAR":-0.013948933,"MEAN_MOTION_DOT":-0.01881277,"MEAN_MOTION_DDOT":0},{"OBJECT_NAME":"STARLINK-36931","OBJECT_ID":"2026-039Q","EPOCH":"2026-03-15T06:00:00.999648","MEAN_MOTION":15.79270683,"ECCENTRICITY":0.00013753,"INCLINATION":43,"RA_OF_ASC_NODE":20.7199,"ARG_OF_PERICENTER":278.3181,"MEAN_ANOMALY":209.7013,"EPHEMERIS_TYPE":0,"CLASSIFICATION_TYPE":"U","NORAD_CAT_ID":68000,"ELEMENT_SET_NO":999,"REV_AT_EPOCH":377,"BSTAR":-0.011635999,"MEAN_MOTION_DOT":-0.01884153,"MEAN_MOTION_DDOT":0},{"OBJECT_NAME":"STARLINK-36903","OBJECT_ID":"2026-039R","EPOCH":"2026-03-15T06:00:00.999648","MEAN_MOTION":15.75098181,"ECCENTRICITY":0.0001264,"INCLINATION":42.9998,"RA_OF_ASC_NODE":20.7517,"ARG_OF_PERICENTER":272.6162,"MEAN_ANOMALY":202.3699,"EPHEMERIS_TYPE":0,"CLASSIFICATION_TYPE":"U","NORAD_CAT_ID":68001,"ELEMENT_SET_NO":999,"REV_AT_EPOCH":377,"BSTAR":-0.013946823,"MEAN_MOTION_DOT":-0.01872145,"MEAN_MOTION_DDOT":0},{"OBJECT_NAME":"STARLINK-36898","OBJECT_ID":"2026-039S","EPOCH":"2026-03-14T08:10:53.376384","MEAN_MOTION":15.82125495,"ECCENTRICITY":0.00012496,"INCLINATION":42.9988,"RA_OF_ASC_NODE":26.2478,"ARG_OF_PERICENTER":229.9232,"MEAN_ANOMALY":130.1531,"EPHEMERIS_TYPE":0,"CLASSIFICATION_TYPE":"U","NORAD_CAT_ID":68002,"ELEMENT_SET_NO":999,"REV_AT_EPOCH":237,"BSTAR":0.0015837523,"MEAN_MOTION_DOT":0.0034851,"MEAN_MOTION_DDOT":0}]
